{
  "type": "FeatureCollection",
  "features": [
    {
      "type": "Feature",
      "properties": {
        "norad_id": 30979,
        "name": "FENGYUN 1C DEB",
        "group": "fengyun-1c-debris",
        "lat": -25.747986625450622,
        "lon": -101.14480512947056,
        "alt_km": 715.1214473276004,
        "timestamp": "2025-12-22T20:43:46.128285+00:00",
        "meta_object_name": "FENGYUN 1C DEB",
        "meta_object_id": "1999-025BBV",
        "meta_epoch": "2025-12-22T11:54:42.971616",
        "meta_mean_motion": 14.78931095,
        "meta_eccentricity": 0.01902529,
        "meta_inclination": 97.83,
        "meta_ra_of_asc_node": 254.6919,
        "meta_arg_of_pericenter": 209.2808,
        "meta_mean_anomaly": 328.1531,
        "meta_ephemeris_type": 0,
        "meta_classification_type": "U",
        "meta_norad_cat_id": 30979,
        "meta_element_set_no": 999,
        "meta_rev_at_epoch": 99289,
        "meta_bstar": 0.00096201713,
        "meta_mean_motion_dot": 9.586e-05,
        "meta_mean_motion_ddot": 0,
        "tle_line1": "1 30979U 99025BBV 25356.49633069  .00009586  00000+0  96202-3 0  9993",
        "tle_line2": "2 30979  97.8300 254.6919 0190252 209.2808 328.1531 14.78931095992898"
      },
      "geometry": {
        "type": "Point",
        "coordinates": [
          -101.14480512947056,
          -25.747986625450622
        ]
      }
    },
    {
      "type": "Feature",
      "properties": {
        "norad_id": 30982,
        "name": "FENGYUN 1C DEB",
        "group": "fengyun-1c-debris",
        "lat": -70.8513580022307,
        "lon": 142.2777518137334,
        "alt_km": 617.0664978214909,
        "timestamp": "2025-12-22T20:43:46.128295+00:00",
        "meta_object_name": "FENGYUN 1C DEB",
        "meta_object_id": "1999-025BBY",
        "meta_epoch": "2025-12-21T11:11:41.104608",
        "meta_mean_motion": 14.50977404,
        "meta_eccentricity": 0.01800088,
        "meta_inclination": 98.2171,
        "meta_ra_of_asc_node": 345.5041,
        "meta_arg_of_pericenter": 285.5929,
        "meta_mean_anomaly": 233.5591,
        "meta_ephemeris_type": 0,
        "meta_classification_type": "U",
        "meta_norad_cat_id": 30982,
        "meta_element_set_no": 999,
        "meta_rev_at_epoch": 71180,
        "meta_bstar": 0.00025430817,
        "meta_mean_motion_dot": 1.184e-05,
        "meta_mean_motion_ddot": 0,
        "tle_line1": "1 30982U 99025BBY 25355.46644797  .00001184  00000+0  25431-3 0  9995",
        "tle_line2": "2 30982  98.2171 345.5041 0180008 285.5929 233.5591 14.50977404711807"
      },
      "geometry": {
        "type": "Point",
        "coordinates": [
          142.2777518137334,
          -70.8513580022307
        ]
      }
    },
    {
      "type": "Feature",
      "properties": {
        "norad_id": 30984,
        "name": "FENGYUN 1C DEB",
        "group": "fengyun-1c-debris",
        "lat": 64.85506405029226,
        "lon": -128.94980831488292,
        "alt_km": 782.8907332978733,
        "timestamp": "2025-12-22T20:43:46.128305+00:00",
        "meta_object_name": "FENGYUN 1C DEB",
        "meta_object_id": "1999-025BCA",
        "meta_epoch": "2025-12-19T01:09:07.900704",
        "meta_mean_motion": 14.50470271,
        "meta_eccentricity": 0.01269732,
        "meta_inclination": 98.2627,
        "meta_ra_of_asc_node": 29.2707,
        "meta_arg_of_pericenter": 348.6992,
        "meta_mean_anomaly": 11.1357,
        "meta_ephemeris_type": 0,
        "meta_classification_type": "U",
        "meta_norad_cat_id": 30984,
        "meta_element_set_no": 999,
        "meta_rev_at_epoch": 95255,
        "meta_bstar": 0.00057491681,
        "meta_mean_motion_dot": 2.445e-05,
        "meta_mean_motion_ddot": 0,
        "tle_line1": "1 30984U 99025BCA 25353.04800811  .00002445  00000+0  57492-3 0  9993",
        "tle_line2": "2 30984  98.2627  29.2707 0126973 348.6992  11.1357 14.50470271952551"
      },
      "geometry": {
        "type": "Point",
        "coordinates": [
          -128.94980831488292,
          64.85506405029226
        ]
      }
    },
    {
      "type": "Feature",
      "properties": {
        "norad_id": 30988,
        "name": "FENGYUN 1C DEB",
        "group": "fengyun-1c-debris",
        "lat": -25.477853918701513,
        "lon": -50.21335298481633,
        "alt_km": 423.8850700199255,
        "timestamp": "2025-12-22T20:43:46.128315+00:00",
        "meta_object_name": "FENGYUN 1C DEB",
        "meta_object_id": "1999-025BCE",
        "meta_epoch": "2025-12-20T20:05:36.735936",
        "meta_mean_motion": 15.27111223,
        "meta_eccentricity": 0.01098086,
        "meta_inclination": 98.5432,
        "meta_ra_of_asc_node": 303.3604,
        "meta_arg_of_pericenter": 311.9603,
        "meta_mean_anomaly": 47.2314,
        "meta_ephemeris_type": 0,
        "meta_classification_type": "U",
        "meta_norad_cat_id": 30988,
        "meta_element_set_no": 999,
        "meta_rev_at_epoch": 99687,
        "meta_bstar": 0.0012912634,
        "meta_mean_motion_dot": 0.00041106,
        "meta_mean_motion_ddot": 0,
        "tle_line1": "1 30988U 99025BCE 25354.83723074  .00041106  00000+0  12913-2 0  9995",
        "tle_line2": "2 30988  98.5432 303.3604 0109808 311.9603  47.2314 15.27111223996874"
      },
      "geometry": {
        "type": "Point",
        "coordinates": [
          -50.21335298481633,
          -25.477853918701513
        ]
      }
    },
    {
      "type": "Feature",
      "properties": {
        "norad_id": 30989,
        "name": "FENGYUN 1C DEB",
        "group": "fengyun-1c-debris",
        "lat": -35.87057715168894,
        "lon": 77.17868385159225,
        "alt_km": 871.1114121117735,
        "timestamp": "2025-12-22T20:43:46.128325+00:00",
        "meta_object_name": "FENGYUN 1C DEB",
        "meta_object_id": "1999-025BCF",
        "meta_epoch": "2025-12-22T10:42:41.755104",
        "meta_mean_motion": 14.13983782,
        "meta_eccentricity": 0.00900595,
        "meta_inclination": 99.0521,
        "meta_ra_of_asc_node": 70.1366,
        "meta_arg_of_pericenter": 72.4556,
        "meta_mean_anomaly": 288.6432,
        "meta_ephemeris_type": 0,
        "meta_classification_type": "U",
        "meta_norad_cat_id": 30989,
        "meta_element_set_no": 999,
        "meta_rev_at_epoch": 96125,
        "meta_bstar": 0.0013369436,
        "meta_mean_motion_dot": 2.595e-05,
        "meta_mean_motion_ddot": 0,
        "tle_line1": "1 30989U 99025BCF 25356.44631661  .00002595  00000+0  13369-2 0  9990",
        "tle_line2": "2 30989  99.0521  70.1366 0090059  72.4556 288.6432 14.13983782961254"
      },
      "geometry": {
        "type": "Point",
        "coordinates": [
          77.17868385159225,
          -35.87057715168894
        ]
      }
    },
    {
      "type": "Feature",
      "properties": {
        "norad_id": 30993,
        "name": "FENGYUN 1C DEB",
        "group": "fengyun-1c-debris",
        "lat": -35.147322204901876,
        "lon": 95.85470803093118,
        "alt_km": 768.488696742379,
        "timestamp": "2025-12-22T20:43:46.128336+00:00",
        "meta_object_name": "FENGYUN 1C DEB",
        "meta_object_id": "1999-025BCK",
        "meta_epoch": "2025-12-22T05:56:51.400896",
        "meta_mean_motion": 14.35510543,
        "meta_eccentricity": 0.00162299,
        "meta_inclination": 98.8467,
        "meta_ra_of_asc_node": 88.9282,
        "meta_arg_of_pericenter": 343.6451,
        "meta_mean_anomaly": 39.7534,
        "meta_ephemeris_type": 0,
        "meta_classification_type": "U",
        "meta_norad_cat_id": 30993,
        "meta_element_set_no": 999,
        "meta_rev_at_epoch": 97056,
        "meta_bstar": 0.0017726623,
        "meta_mean_motion_dot": 5.064e-05,
        "meta_mean_motion_ddot": 0,
        "tle_line1": "1 30993U 99025BCK 25356.24781714  .00005064  00000+0  17727-2 0  9994",
        "tle_line2": "2 30993  98.8467  88.9282 0016229 343.6451  39.7534 14.35510543970560"
      },
      "geometry": {
        "type": "Point",
        "coordinates": [
          95.85470803093118,
          -35.147322204901876
        ]
      }
    },
    {
      "type": "Feature",
      "properties": {
        "norad_id": 30994,
        "name": "FENGYUN 1C DEB",
        "group": "fengyun-1c-debris",
        "lat": -39.37502786983283,
        "lon": 177.78387899866263,
        "alt_km": 855.9532642955983,
        "timestamp": "2025-12-22T20:43:46.128346+00:00",
        "meta_object_name": "FENGYUN 1C DEB",
        "meta_object_id": "1999-025BCL",
        "meta_epoch": "2025-12-21T16:28:40.173312",
        "meta_mean_motion": 14.11775807,
        "meta_eccentricity": 0.00182736,
        "meta_inclination": 98.6996,
        "meta_ra_of_asc_node": 3.861,
        "meta_arg_of_pericenter": 149.663,
        "meta_mean_anomaly": 210.5603,
        "meta_ephemeris_type": 0,
        "meta_classification_type": "U",
        "meta_norad_cat_id": 30994,
        "meta_element_set_no": 999,
        "meta_rev_at_epoch": 96711,
        "meta_bstar": 0.00013382716,
        "meta_mean_motion_dot": 2.02e-06,
        "meta_mean_motion_ddot": 0,
        "tle_line1": "1 30994U 99025BCL 25355.68657608  .00000202  00000+0  13383-3 0  9990",
        "tle_line2": "2 30994  98.6996   3.8610 0018273 149.6630 210.5603 14.11775807967114"
      },
      "geometry": {
        "type": "Point",
        "coordinates": [
          177.78387899866263,
          -39.37502786983283
        ]
      }
    }
  ]
}